[{"OBJECT_NAME":"STARLINK-32933","OBJECT_ID":"2025-037F","EPOCH":"2026-03-09T21:39:59.933664","MEAN_MOTION":14.96392117,"ECCENTRICITY":0.00092861,"INCLINATION":70.0032,"RA_OF_ASC_NODE":353.9289,"ARG_OF_PERICENTER":34.0128,"MEAN_ANOMALY":326.1623,"EPHEMERIS_TYPE":0,"CLASSIFICATION_TYPE":"U","NORAD_CAT_ID":63082,"ELEMENT_SET_NO":999,"REV_AT_EPOCH":5857,"BSTAR":-0.11736872,"MEAN_MOTION_DOT":-0.01234595,"MEAN_MOTION_DDOT":0},{"OBJECT_NAME":"CZ-6A DEB","OBJECT_ID":"2022-151ADL","EPOCH":"2026-03-09T17:28:13.716192","MEAN_MOTION":14.75641631,"ECCENTRICITY":0.00643507,"INCLINATION":98.632,"RA_OF_ASC_NODE":141.8297,"ARG_OF_PERICENTER":118.8328,"MEAN_ANOMALY":241.936,"EPHEMERIS_TYPE":0,"CLASSIFICATION_TYPE":"U","NORAD_CAT_ID":56588,"ELEMENT_SET_NO":999,"REV_AT_EPOCH":16282,"BSTAR":0.0023477028,"MEAN_MOTION_DOT":0.00016555,"MEAN_MOTION_DDOT":0}]
